[{"OBJECT_NAME":"ONEWEB-0528","OBJECT_ID":"2022-166B","EPOCH":"2025-09-24T13:24:58.636800","MEAN_MOTION":13.21823178,"ECCENTRICITY":0.00018461,"INCLINATION":87.9191,"RA_OF_ASC_NODE":297.0121,"ARG_OF_PERICENTER":95.8657,"MEAN_ANOMALY":264.2687,"EPHEMERIS_TYPE":0,"CLASSIFICATION_TYPE":"U","NORAD_CAT_ID":54643,"ELEMENT_SET_NO":999,"REV_AT_EPOCH":13645,"BSTAR":2.2263095e-5,"MEAN_MOTION_DOT":2.2e-7,"MEAN_MOTION_DDOT":0},{"OBJECT_NAME":"ONEWEB-0539","OBJECT_ID":"2022-166C","EPOCH":"2025-09-24T10:39:14.037408","MEAN_MOTION":13.21824916,"ECCENTRICITY":0.00018198,"INCLINATION":87.9183,"RA_OF_ASC_NODE":297.0021,"ARG_OF_PERICENTER":87.6999,"MEAN_ANOMALY":272.4344,"EPHEMERIS_TYPE":0,"CLASSIFICATION_TYPE":"U","NORAD_CAT_ID":54644,"ELEMENT_SET_NO":999,"REV_AT_EPOCH":13643,"BSTAR":-1.3500049e-5,"MEAN_MOTION_DOT":7.0e-8,"MEAN_MOTION_DDOT":0},{"OBJECT_NAME":"ONEWEB-0540","OBJECT_ID":"2022-166D","EPOCH":"2025-09-24T10:48:30.302208","MEAN_MOTION":13.21824103,"ECCENTRICITY":0.00018439,"INCLINATION":87.9188,"RA_OF_ASC_NODE":297.0384,"ARG_OF_PERICENTER":86.9582,"MEAN_ANOMALY":273.1763,"EPHEMERIS_TYPE":0,"CLASSIFICATION_TYPE":"U","NORAD_CAT_ID":54645,"ELEMENT_SET_NO":999,"REV_AT_EPOCH":13642,"BSTAR":-0.00013021413,"MEAN_MOTION_DOT":-4.1e-7,"MEAN_MOTION_DDOT":0},{"OBJECT_NAME":"ONEWEB-0542","OBJECT_ID":"2022-166E","EPOCH":"2025-09-24T09:03:50.074560","MEAN_MOTION":13.2182444,"ECCENTRICITY":0.0001944,"INCLINATION":87.9184,"RA_OF_ASC_NODE":297.0129,"ARG_OF_PERICENTER":82.9234,"MEAN_ANOMALY":277.2121,"EPHEMERIS_TYPE":0,"CLASSIFICATION_TYPE":"U","NORAD_CAT_ID":54646,"ELEMENT_SET_NO":999,"REV_AT_EPOCH":13642,"BSTAR":-6.195525e-5,"MEAN_MOTION_DOT":-1.3e-7,"MEAN_MOTION_DDOT":0},{"OBJECT_NAME":"ONEWEB-0545","OBJECT_ID":"2022-166F","EPOCH":"2025-09-24T13:43:08.665248","MEAN_MOTION":13.21823694,"ECCENTRICITY":0.00017632,"INCLINATION":87.9185,"RA_OF_ASC_NODE":296.9938,"ARG_OF_PERICENTER":76.8161,"MEAN_ANOMALY":283.317,"EPHEMERIS_TYPE":0,"CLASSIFICATION_TYPE":"U","NORAD_CAT_ID":54647,"ELEMENT_SET_NO":999,"REV_AT_EPOCH":13641,"BSTAR":0.0001349751,"MEAN_MOTION_DOT":6.9e-7,"MEAN_MOTION_DDOT":0},{"OBJECT_NAME":"ONEWEB-0580","OBJECT_ID":"2022-166G","EPOCH":"2025-09-24T11:15:33.344352","MEAN_MOTION":13.21825051,"ECCENTRICITY":0.00020474,"INCLINATION":87.9185,"RA_OF_ASC_NODE":297.0122,"ARG_OF_PERICENTER":83.1596,"MEAN_ANOMALY":276.9771,"EPHEMERIS_TYPE":0,"CLASSIFICATION_TYPE":"U","NORAD_CAT_ID":54648,"ELEMENT_SET_NO":999,"REV_AT_EPOCH":13644,"BSTAR":-2.0985788e-5,"MEAN_MOTION_DOT":4.0e-8,"MEAN_MOTION_DDOT":0},{"OBJECT_NAME":"ONEWEB-0582","OBJECT_ID":"2022-166H","EPOCH":"2025-09-24T14:05:52.088352","MEAN_MOTION":13.21823934,"ECCENTRICITY":0.00020698,"INCLINATION":87.9183,"RA_OF_ASC_NODE":296.982,"ARG_OF_PERICENTER":79.8091,"MEAN_ANOMALY":280.3276,"EPHEMERIS_TYPE":0,"CLASSIFICATION_TYPE":"U","NORAD_CAT_ID":54649,"ELEMENT_SET_NO":999,"REV_AT_EPOCH":13643,"BSTAR":9.657901e-5,"MEAN_MOTION_DOT":5.3e-7,"MEAN_MOTION_DDOT":0},{"OBJECT_NAME":"ONEWEB-0583","OBJECT_ID":"2022-166J","EPOCH":"2025-09-24T10:43:45.707520","MEAN_MOTION":13.21824348,"ECCENTRICITY":0.00018623,"INCLINATION":87.9187,"RA_OF_ASC_NODE":297.0353,"ARG_OF_PERICENTER":89.4067,"MEAN_ANOMALY":270.7281,"EPHEMERIS_TYPE":0,"CLASSIFICATION_TYPE":"U","NORAD_CAT_ID":54650,"ELEMENT_SET_NO":999,"REV_AT_EPOCH":13642,"BSTAR":0.00017664473,"MEAN_MOTION_DOT":8.6e-7,"MEAN_MOTION_DDOT":0},{"OBJECT_NAME":"ONEWEB-0584","OBJECT_ID":"2022-166K","EPOCH":"2025-09-24T11:13:16.630176","MEAN_MOTION":13.21824344,"ECCENTRICITY":0.00021306,"INCLINATION":87.9186,"RA_OF_ASC_NODE":297.0161,"ARG_OF_PERICENTER":84.0462,"MEAN_ANOMALY":276.0915,"EPHEMERIS_TYPE":0,"CLASSIFICATION_TYPE":"U","NORAD_CAT_ID":54651,"ELEMENT_SET_NO":999,"REV_AT_EPOCH":13641,"BSTAR":-0.00011034859,"MEAN_MOTION_DOT":-3.3e-7,"MEAN_MOTION_DDOT":0},{"OBJECT_NAME":"ONEWEB-0585","OBJECT_ID":"2022-166L","EPOCH":"2025-09-24T13:38:36.842208","MEAN_MOTION":13.21823894,"ECCENTRICITY":0.0001944,"INCLINATION":87.9185,"RA_OF_ASC_NODE":296.9817,"ARG_OF_PERICENTER":97.6047,"MEAN_ANOMALY":262.5308,"EPHEMERIS_TYPE":0,"CLASSIFICATION_TYPE":"U","NORAD_CAT_ID":54652,"ELEMENT_SET_NO":999,"REV_AT_EPOCH":13643,"BSTAR":0.00016076405,"MEAN_MOTION_DOT":7.9e-7,"MEAN_MOTION_DDOT":0},{"OBJECT_NAME":"ONEWEB-0586","OBJECT_ID":"2022-166M","EPOCH":"2025-09-24T12:07:47.222688","MEAN_MOTION":13.21824563,"ECCENTRICITY":0.00018802,"INCLINATION":87.9189,"RA_OF_ASC_NODE":297.0192,"ARG_OF_PERICENTER":88.0485,"MEAN_ANOMALY":272.0865,"EPHEMERIS_TYPE":0,"CLASSIFICATION_TYPE":"U","NORAD_CAT_ID":54653,"ELEMENT_SET_NO":999,"REV_AT_EPOCH":13642,"BSTAR":0.00022011717,"MEAN_MOTION_DOT":1.04e-6,"MEAN_MOTION_DDOT":0},{"OBJECT_NAME":"ONEWEB-0587","OBJECT_ID":"2022-166N","EPOCH":"2025-09-24T03:16:24.102912","MEAN_MOTION":13.21826765,"ECCENTRICITY":0.00019373,"INCLINATION":87.9195,"RA_OF_ASC_NODE":297.0411,"ARG_OF_PERICENTER":105.8251,"MEAN_ANOMALY":254.3097,"EPHEMERIS_TYPE":0,"CLASSIFICATION_TYPE":"U","NORAD_CAT_ID":54654,"ELEMENT_SET_NO":999,"REV_AT_EPOCH":13653,"BSTAR":-9.5908262e-5,"MEAN_MOTION_DOT":-2.7e-7,"MEAN_MOTION_DDOT":0},{"OBJECT_NAME":"ONEWEB-0589","OBJECT_ID":"2022-166P","EPOCH":"2025-09-24T12:03:14.883840","MEAN_MOTION":13.21823538,"ECCENTRICITY":0.00023988,"INCLINATION":87.9187,"RA_OF_ASC_NODE":297.0113,"ARG_OF_PERICENTER":74.7498,"MEAN_ANOMALY":285.3901,"EPHEMERIS_TYPE":0,"CLASSIFICATION_TYPE":"U","NORAD_CAT_ID":54655,"ELEMENT_SET_NO":999,"REV_AT_EPOCH":13644,"BSTAR":-8.1728387e-5,"MEAN_MOTION_DOT":-2.1e-7,"MEAN_MOTION_DDOT":0},{"OBJECT_NAME":"ONEWEB-0590","OBJECT_ID":"2022-166Q","EPOCH":"2025-09-24T10:48:06.074784","MEAN_MOTION":13.21826892,"ECCENTRICITY":0.00023679,"INCLINATION":87.9184,"RA_OF_ASC_NODE":296.9976,"ARG_OF_PERICENTER":96.7587,"MEAN_ANOMALY":263.3817,"EPHEMERIS_TYPE":0,"CLASSIFICATION_TYPE":"U","NORAD_CAT_ID":54656,"ELEMENT_SET_NO":999,"REV_AT_EPOCH":13642,"BSTAR":9.2219156e-5,"MEAN_MOTION_DOT":5.1e-7,"MEAN_MOTION_DDOT":0},{"OBJECT_NAME":"ONEWEB-0591","OBJECT_ID":"2022-166R","EPOCH":"2025-09-24T14:44:28.613184","MEAN_MOTION":13.21823961,"ECCENTRICITY":0.00019585,"INCLINATION":87.9185,"RA_OF_ASC_NODE":296.989,"ARG_OF_PERICENTER":90.2337,"MEAN_ANOMALY":269.9021,"EPHEMERIS_TYPE":0,"CLASSIFICATION_TYPE":"U","NORAD_CAT_ID":54657,"ELEMENT_SET_NO":999,"REV_AT_EPOCH":13647,"BSTAR":-5.2728402e-5,"MEAN_MOTION_DOT":-9.0e-8,"MEAN_MOTION_DDOT":0},{"OBJECT_NAME":"ONEWEB-0592","OBJECT_ID":"2022-166S","EPOCH":"2025-09-24T14:49:01.210368","MEAN_MOTION":13.21824329,"ECCENTRICITY":0.00019802,"INCLINATION":87.9195,"RA_OF_ASC_NODE":296.9438,"ARG_OF_PERICENTER":90.975,"MEAN_ANOMALY":269.161,"EPHEMERIS_TYPE":0,"CLASSIFICATION_TYPE":"U","NORAD_CAT_ID":54658,"ELEMENT_SET_NO":999,"REV_AT_EPOCH":13635,"BSTAR":2.2221898e-5,"MEAN_MOTION_DOT":2.2e-7,"MEAN_MOTION_DDOT":0},{"OBJECT_NAME":"ONEWEB-0593","OBJECT_ID":"2022-166T","EPOCH":"2025-09-24T13:34:05.308608","MEAN_MOTION":13.21821491,"ECCENTRICITY":0.00018555,"INCLINATION":87.9185,"RA_OF_ASC_NODE":296.9891,"ARG_OF_PERICENTER":87.9818,"MEAN_ANOMALY":272.1529,"EPHEMERIS_TYPE":0,"CLASSIFICATION_TYPE":"U","NORAD_CAT_ID":54659,"ELEMENT_SET_NO":999,"REV_AT_EPOCH":13645,"BSTAR":0.0024069669,"MEAN_MOTION_DOT":1.007e-5,"MEAN_MOTION_DDOT":0}]
