ONEWEB-0528             
1 54643U 22166B   25267.55901200  .00000022  00000+0  22263-4 0  9995
2 54643  87.9191 297.0121 0001846  95.8657 264.2687 13.21823178136450
ONEWEB-0539             
1 54644U 22166C   25267.44391247  .00000007  00000+0 -13500-4 0  9996
2 54644  87.9183 297.0021 0001819  87.6999 272.4344 13.21824916136439
ONEWEB-0540             
1 54645U 22166D   25267.45035072 -.00000041  00000+0 -13021-3 0  9995
2 54645  87.9188 297.0384 0001843  86.9582 273.1763 13.21824103136424
ONEWEB-0542             
1 54646U 22166E   25267.37766290 -.00000013  00000+0 -61955-4 0  9999
2 54646  87.9184 297.0129 0001944  82.9234 277.2121 13.21824440136427
ONEWEB-0545             
1 54647U 22166F   25267.57162807  .00000069  00000+0  13498-3 0  9993
2 54647  87.9185 296.9938 0001763  76.8161 283.3170 13.21823694136416
ONEWEB-0580             
1 54648U 22166G   25267.46913593  .00000004  00000+0 -20986-4 0  9999
2 54648  87.9185 297.0122 0002047  83.1596 276.9771 13.21825051136440
ONEWEB-0582             
1 54649U 22166H   25267.58740843  .00000053  00000+0  96579-4 0  9993
2 54649  87.9183 296.9820 0002069  79.8091 280.3276 13.21823934136434
ONEWEB-0583             
1 54650U 22166J   25267.44705680  .00000086  00000+0  17664-3 0  9993
2 54650  87.9187 297.0353 0001862  89.4067 270.7281 13.21824348136421
ONEWEB-0584             
1 54651U 22166K   25267.46755359 -.00000033  00000+0 -11035-3 0  9994
2 54651  87.9186 297.0161 0002130  84.0462 276.0915 13.21824344136415
ONEWEB-0585             
1 54652U 22166L   25267.56848197  .00000079  00000+0  16076-3 0  9997
2 54652  87.9185 296.9817 0001944  97.6047 262.5308 13.21823894136439
ONEWEB-0586             
1 54653U 22166M   25267.50540767  .00000104  00000+0  22012-3 0  9990
2 54653  87.9189 297.0192 0001880  88.0485 272.0865 13.21824563136428
ONEWEB-0587             
1 54654U 22166N   25267.13639008 -.00000027  00000+0 -95908-4 0  9998
2 54654  87.9195 297.0411 0001937 105.8251 254.3097 13.21826765136530
ONEWEB-0589             
1 54655U 22166P   25267.50225560 -.00000021  00000+0 -81728-4 0  9993
2 54655  87.9187 297.0113 0002398  74.7498 285.3901 13.21823538136443
ONEWEB-0590             
1 54656U 22166Q   25267.45007031  .00000051  00000+0  92219-4 0  9997
2 54656  87.9184 296.9976 0002367  96.7587 263.3817 13.21826892136421
ONEWEB-0591             
1 54657U 22166R   25267.61422006 -.00000009  00000+0 -52728-4 0  9995
2 54657  87.9185 296.9890 0001958  90.2337 269.9021 13.21823961136473
ONEWEB-0592             
1 54658U 22166S   25267.61737512  .00000022  00000+0  22222-4 0  9996
2 54658  87.9195 296.9438 0001980  90.9750 269.1610 13.21824329136356
ONEWEB-0593             
1 54659U 22166T   25267.56533922  .00001007  00000+0  24070-2 0  9995
2 54659  87.9185 296.9891 0001855  87.9818 272.1529 13.21821491136452
